{
  "type": "FeatureCollection",
  "features": [
    {
      "type": "Feature",
      "properties": {
        "norad_id": 39766,
        "name": "ALOS-2",
        "group": "resource",
        "lat": 13.766091879268547,
        "lon": 71.90283116521564,
        "alt_km": 632.128594631914,
        "timestamp": "2025-12-04T21:36:15.531377+00:00",
        "meta_object_name": "ALOS-2",
        "meta_object_id": "2014-029A",
        "meta_epoch": "2025-12-04T11:48:08.897760",
        "meta_mean_motion": 14.79460682,
        "meta_eccentricity": 0.00015125,
        "meta_inclination": 97.9237,
        "meta_ra_of_asc_node": 73.4557,
        "meta_arg_of_pericenter": 108.1416,
        "meta_mean_anomaly": 251.9961,
        "meta_ephemeris_type": 0,
        "meta_classification_type": "U",
        "meta_norad_cat_id": 39766,
        "meta_element_set_no": 999,
        "meta_rev_at_epoch": 62279,
        "meta_bstar": 0.0006509315,
        "meta_mean_motion_dot": 4.812e-05,
        "meta_mean_motion_ddot": 0,
        "tle_line1": "1 39766U 14029A   25338.49176965  .00004812  00000+0  65093-3 0  9995",
        "tle_line2": "2 39766  97.9237  73.4557 0001512 108.1416 251.9961 14.79460682622797"
      },
      "geometry": {
        "type": "Point",
        "coordinates": [
          71.90283116521564,
          13.766091879268547
        ]
      }
    },
    {
      "type": "Feature",
      "properties": {
        "norad_id": 40010,
        "name": "KAZEOSAT 2",
        "group": "resource",
        "lat": 55.422961338436316,
        "lon": 14.715052902248795,
        "alt_km": 609.7944875380399,
        "timestamp": "2025-12-04T21:36:15.531388+00:00",
        "meta_object_name": "KAZEOSAT 2",
        "meta_object_id": "2014-033A",
        "meta_epoch": "2025-12-04T14:34:48.811296",
        "meta_mean_motion": 14.85147608,
        "meta_eccentricity": 0.00072878,
        "meta_inclination": 97.5511,
        "meta_ra_of_asc_node": 183.3417,
        "meta_arg_of_pericenter": 237.0112,
        "meta_mean_anomaly": 123.0404,
        "meta_ephemeris_type": 0,
        "meta_classification_type": "U",
        "meta_norad_cat_id": 40010,
        "meta_element_set_no": 999,
        "meta_rev_at_epoch": 62007,
        "meta_bstar": 0.0001770878,
        "meta_mean_motion_dot": 1.466e-05,
        "meta_mean_motion_ddot": 0,
        "tle_line1": "1 40010U 14033A   25338.60750939  .00001466  00000+0  17709-3 0  9999",
        "tle_line2": "2 40010  97.5511 183.3417 0007287 237.0112 123.0404 14.85147608620075"
      },
      "geometry": {
        "type": "Point",
        "coordinates": [
          14.715052902248795,
          55.422961338436316
        ]
      }
    },
    {
      "type": "Feature",
      "properties": {
        "norad_id": 40011,
        "name": "HODOYOSHI-4",
        "group": "resource",
        "lat": 33.07342372645226,
        "lon": -6.880536392902406,
        "alt_km": 601.4420381852424,
        "timestamp": "2025-12-04T21:36:15.531398+00:00",
        "meta_object_name": "HODOYOSHI-4",
        "meta_object_id": "2014-033B",
        "meta_epoch": "2025-12-04T16:06:08.128224",
        "meta_mean_motion": 14.87434863,
        "meta_eccentricity": 0.00227293,
        "meta_inclination": 97.5412,
        "meta_ra_of_asc_node": 167.9525,
        "meta_arg_of_pericenter": 228.2301,
        "meta_mean_anomaly": 131.6974,
        "meta_ephemeris_type": 0,
        "meta_classification_type": "U",
        "meta_norad_cat_id": 40011,
        "meta_element_set_no": 999,
        "meta_rev_at_epoch": 61988,
        "meta_bstar": 0.00046633551,
        "meta_mean_motion_dot": 4.189e-05,
        "meta_mean_motion_ddot": 0,
        "tle_line1": "1 40011U 14033B   25338.67092741  .00004189  00000+0  46634-3 0  9991",
        "tle_line2": "2 40011  97.5412 167.9525 0022729 228.2301 131.6974 14.87434863619882"
      },
      "geometry": {
        "type": "Point",
        "coordinates": [
          -6.880536392902406,
          33.07342372645226
        ]
      }
    },
    {
      "type": "Feature",
      "properties": {
        "norad_id": 40013,
        "name": "DEIMOS-2",
        "group": "resource",
        "lat": 30.28789108161709,
        "lon": 39.43519855768821,
        "alt_km": 586.9856100120551,
        "timestamp": "2025-12-04T21:36:15.531409+00:00",
        "meta_object_name": "DEIMOS-2",
        "meta_object_id": "2014-033D",
        "meta_epoch": "2025-12-04T16:06:43.174656",
        "meta_mean_motion": 14.92915805,
        "meta_eccentricity": 9.021e-05,
        "meta_inclination": 97.6071,
        "meta_ra_of_asc_node": 214.737,
        "meta_arg_of_pericenter": 91.5432,
        "meta_mean_anomaly": 268.5891,
        "meta_ephemeris_type": 0,
        "meta_classification_type": "U",
        "meta_norad_cat_id": 40013,
        "meta_element_set_no": 999,
        "meta_rev_at_epoch": 60869,
        "meta_bstar": 0.00053917652,
        "meta_mean_motion_dot": 5.54e-05,
        "meta_mean_motion_ddot": 0,
        "tle_line1": "1 40013U 14033D   25338.67133304  .00005540  00000+0  53918-3 0  9999",
        "tle_line2": "2 40013  97.6071 214.7370 0000902  91.5432 268.5891 14.92915805608691"
      },
      "geometry": {
        "type": "Point",
        "coordinates": [
          39.43519855768821,
          30.28789108161709
        ]
      }
    },
    {
      "type": "Feature",
      "properties": {
        "norad_id": 40015,
        "name": "HODOYOSHI-3",
        "group": "resource",
        "lat": 32.40997876243371,
        "lon": -30.048794606500014,
        "alt_km": 626.009052633669,
        "timestamp": "2025-12-04T21:36:15.531420+00:00",
        "meta_object_name": "HODOYOSHI-3",
        "meta_object_id": "2014-033F",
        "meta_epoch": "2025-12-04T11:14:10.478112",
        "meta_mean_motion": 14.84762623,
        "meta_eccentricity": 0.00318293,
        "meta_inclination": 97.6193,
        "meta_ra_of_asc_node": 144.6631,
        "meta_arg_of_pericenter": 276.2794,
        "meta_mean_anomaly": 83.4796,
        "meta_ephemeris_type": 0,
        "meta_classification_type": "U",
        "meta_norad_cat_id": 40015,
        "meta_element_set_no": 999,
        "meta_rev_at_epoch": 61872,
        "meta_bstar": 0.00045866401,
        "meta_mean_motion_dot": 3.872e-05,
        "meta_mean_motion_ddot": 0,
        "tle_line1": "1 40015U 14033F   25338.46817683  .00003872  00000+0  45866-3 0  9996",
        "tle_line2": "2 40015  97.6193 144.6631 0031829 276.2794  83.4796 14.84762623618726"
      },
      "geometry": {
        "type": "Point",
        "coordinates": [
          -30.048794606500014,
          32.40997876243371
        ]
      }
    },
    {
      "type": "Feature",
      "properties": {
        "norad_id": 40053,
        "name": "SPOT 7",
        "group": "resource",
        "lat": -7.999064170314679,
        "lon": -139.98954697361108,
        "alt_km": 694.8694973898255,
        "timestamp": "2025-12-04T21:36:15.531430+00:00",
        "meta_object_name": "SPOT 7",
        "meta_object_id": "2014-034A",
        "meta_epoch": "2025-12-04T15:48:52.747776",
        "meta_mean_motion": 14.60718142,
        "meta_eccentricity": 0.00015265,
        "meta_inclination": 98.0917,
        "meta_ra_of_asc_node": 40.9203,
        "meta_arg_of_pericenter": 96.321,
        "meta_mean_anomaly": 263.8164,
        "meta_ephemeris_type": 0,
        "meta_classification_type": "U",
        "meta_norad_cat_id": 40053,
        "meta_element_set_no": 999,
        "meta_rev_at_epoch": 60873,
        "meta_bstar": 0.0002477975,
        "meta_mean_motion_dot": 1.162e-05,
        "meta_mean_motion_ddot": 0,
        "tle_line1": "1 40053U 14034A   25338.65894384  .00001162  00000+0  24780-3 0  9995",
        "tle_line2": "2 40053  98.0917  40.9203 0001526  96.3210 263.8164 14.60718142608739"
      },
      "geometry": {
        "type": "Point",
        "coordinates": [
          -139.98954697361108,
          -7.999064170314679
        ]
      }
    },
    {
      "type": "Feature",
      "properties": {
        "norad_id": 40072,
        "name": "SKYSAT-B",
        "group": "resource",
        "lat": 80.88350121393641,
        "lon": 168.5911691191439,
        "alt_km": 598.3530983790333,
        "timestamp": "2025-12-04T21:36:15.531440+00:00",
        "meta_object_name": "SKYSAT-B",
        "meta_object_id": "2014-037D",
        "meta_epoch": "2025-12-04T09:52:55.328736",
        "meta_mean_motion": 14.8727933,
        "meta_eccentricity": 0.00054738,
        "meta_inclination": 98.3596,
        "meta_ra_of_asc_node": 281.6788,
        "meta_arg_of_pericenter": 175.6586,
        "meta_mean_anomaly": 184.4677,
        "meta_ephemeris_type": 0,
        "meta_classification_type": "U",
        "meta_norad_cat_id": 40072,
        "meta_element_set_no": 999,
        "meta_rev_at_epoch": 61700,
        "meta_bstar": 0.00045472668,
        "meta_mean_motion_dot": 4.041e-05,
        "meta_mean_motion_ddot": 0,
        "tle_line1": "1 40072U 14037D   25338.41175149  .00004041  00000+0  45473-3 0  9995",
        "tle_line2": "2 40072  98.3596 281.6788 0005473 175.6586 184.4677 14.87279330617007"
      },
      "geometry": {
        "type": "Point",
        "coordinates": [
          168.5911691191439,
          80.88350121393641
        ]
      }
    }
  ]
}